{
  "type": "FeatureCollection",
  "features": [
    {
      "type": "Feature",
      "properties": {
        "norad_id": 31370,
        "name": "FENGYUN 1C DEB",
        "group": "fengyun-1c-debris",
        "lat": 52.7169809149993,
        "lon": 174.60718161675626,
        "alt_km": 879.8620303392654,
        "timestamp": "2025-12-08T19:31:49.090717+00:00",
        "meta_object_name": "FENGYUN 1C DEB",
        "meta_object_id": "1999-025BSA",
        "meta_epoch": "2025-12-03T11:10:24.268224",
        "meta_mean_motion": 14.09686903,
        "meta_eccentricity": 0.00337804,
        "meta_inclination": 98.7524,
        "meta_ra_of_asc_node": 337.7333,
        "meta_arg_of_pericenter": 324.3179,
        "meta_mean_anomaly": 35.5734,
        "meta_ephemeris_type": 0,
        "meta_classification_type": "U",
        "meta_norad_cat_id": 31370,
        "meta_element_set_no": 999,
        "meta_rev_at_epoch": 96163,
        "meta_bstar": 0.0004582284,
        "meta_mean_motion_dot": 7.65e-06,
        "meta_mean_motion_ddot": 0,
        "tle_line1": "1 31370U 99025BSA 25337.46555866  .00000765  00000+0  45823-3 0  9996",
        "tle_line2": "2 31370  98.7524 337.7333 0033780 324.3179  35.5734 14.09686903961638"
      },
      "geometry": {
        "type": "Point",
        "coordinates": [
          174.60718161675626,
          52.7169809149993
        ]
      }
    },
    {
      "type": "Feature",
      "properties": {
        "norad_id": 31371,
        "name": "FENGYUN 1C DEB",
        "group": "fengyun-1c-debris",
        "lat": 75.38337507959326,
        "lon": -127.77966634786904,
        "alt_km": 922.5003746618904,
        "timestamp": "2025-12-08T19:31:49.090726+00:00",
        "meta_object_name": "FENGYUN 1C DEB",
        "meta_object_id": "1999-025BSB",
        "meta_epoch": "2025-12-03T19:21:30.444768",
        "meta_mean_motion": 14.04472335,
        "meta_eccentricity": 0.00776168,
        "meta_inclination": 98.7673,
        "meta_ra_of_asc_node": 11.1049,
        "meta_arg_of_pericenter": 271.8024,
        "meta_mean_anomaly": 87.4256,
        "meta_ephemeris_type": 0,
        "meta_classification_type": "U",
        "meta_norad_cat_id": 31371,
        "meta_element_set_no": 999,
        "meta_rev_at_epoch": 95621,
        "meta_bstar": 0.0012264361,
        "meta_mean_motion_dot": 1.966e-05,
        "meta_mean_motion_ddot": 0,
        "tle_line1": "1 31371U 99025BSB 25337.80660237  .00001966  00000+0  12264-2 0  9990",
        "tle_line2": "2 31371  98.7673  11.1049 0077616 271.8024  87.4256 14.04472335956212"
      },
      "geometry": {
        "type": "Point",
        "coordinates": [
          -127.77966634786904,
          75.38337507959326
        ]
      }
    },
    {
      "type": "Feature",
      "properties": {
        "norad_id": 31372,
        "name": "FENGYUN 1C DEB",
        "group": "fengyun-1c-debris",
        "lat": -69.91379764244887,
        "lon": 126.72731667238529,
        "alt_km": 834.2571950092388,
        "timestamp": "2025-12-08T19:31:49.090735+00:00",
        "meta_object_name": "FENGYUN 1C DEB",
        "meta_object_id": "1999-025BSC",
        "meta_epoch": "2025-12-08T04:53:13.403904",
        "meta_mean_motion": 14.26484611,
        "meta_eccentricity": 0.00337568,
        "meta_inclination": 99.3738,
        "meta_ra_of_asc_node": 332.9291,
        "meta_arg_of_pericenter": 87.6364,
        "meta_mean_anomaly": 272.8678,
        "meta_ephemeris_type": 0,
        "meta_classification_type": "U",
        "meta_norad_cat_id": 31372,
        "meta_element_set_no": 999,
        "meta_rev_at_epoch": 95786,
        "meta_bstar": 0.0022135546,
        "meta_mean_motion_dot": 5.318e-05,
        "meta_mean_motion_ddot": 0,
        "tle_line1": "1 31372U 99025BSC 25342.20362736  .00005318  00000+0  22136-2 0  9998",
        "tle_line2": "2 31372  99.3738 332.9291 0033756  87.6364 272.8678 14.26484611957866"
      },
      "geometry": {
        "type": "Point",
        "coordinates": [
          126.72731667238529,
          -69.91379764244887
        ]
      }
    },
    {
      "type": "Feature",
      "properties": {
        "norad_id": 31376,
        "name": "FENGYUN 1C DEB",
        "group": "fengyun-1c-debris",
        "lat": 18.684378599211747,
        "lon": -104.25451033538207,
        "alt_km": 692.8696462291609,
        "timestamp": "2025-12-08T19:31:49.090744+00:00",
        "meta_object_name": "FENGYUN 1C DEB",
        "meta_object_id": "1999-025BSG",
        "meta_epoch": "2025-12-08T06:17:58.986528",
        "meta_mean_motion": 14.61549819,
        "meta_eccentricity": 0.00496344,
        "meta_inclination": 98.833,
        "meta_ra_of_asc_node": 258.1715,
        "meta_arg_of_pericenter": 283.0755,
        "meta_mean_anomaly": 76.4907,
        "meta_ephemeris_type": 0,
        "meta_classification_type": "U",
        "meta_norad_cat_id": 31376,
        "meta_element_set_no": 999,
        "meta_rev_at_epoch": 98077,
        "meta_bstar": 0.0027930189,
        "meta_mean_motion_dot": 0.00014081,
        "meta_mean_motion_ddot": 0,
        "tle_line1": "1 31376U 99025BSG 25342.26248827  .00014081  00000+0  27930-2 0  9996",
        "tle_line2": "2 31376  98.8330 258.1715 0049634 283.0755  76.4907 14.61549819980770"
      },
      "geometry": {
        "type": "Point",
        "coordinates": [
          -104.25451033538207,
          18.684378599211747
        ]
      }
    },
    {
      "type": "Feature",
      "properties": {
        "norad_id": 31378,
        "name": "FENGYUN 1C DEB",
        "group": "fengyun-1c-debris",
        "lat": 68.13080794346597,
        "lon": -157.06066913910064,
        "alt_km": 1046.466515394858,
        "timestamp": "2025-12-08T19:31:49.090753+00:00",
        "meta_object_name": "FENGYUN 1C DEB",
        "meta_object_id": "1999-025BSJ",
        "meta_epoch": "2025-12-05T21:34:45.002208",
        "meta_mean_motion": 13.80059858,
        "meta_eccentricity": 0.01686287,
        "meta_inclination": 100.7554,
        "meta_ra_of_asc_node": 227.8951,
        "meta_arg_of_pericenter": 215.1982,
        "meta_mean_anomaly": 143.7934,
        "meta_ephemeris_type": 0,
        "meta_classification_type": "U",
        "meta_norad_cat_id": 31378,
        "meta_element_set_no": 999,
        "meta_rev_at_epoch": 94129,
        "meta_bstar": 0.0011323051,
        "meta_mean_motion_dot": 1.254e-05,
        "meta_mean_motion_ddot": 0,
        "tle_line1": "1 31378U 99025BSJ 25339.89913197  .00001254  00000+0  11323-2 0  9999",
        "tle_line2": "2 31378 100.7554 227.8951 0168628 215.1982 143.7934 13.80059858941292"
      },
      "geometry": {
        "type": "Point",
        "coordinates": [
          -157.06066913910064,
          68.13080794346597
        ]
      }
    },
    {
      "type": "Feature",
      "properties": {
        "norad_id": 31381,
        "name": "FENGYUN 1C DEB",
        "group": "fengyun-1c-debris",
        "lat": -47.669268583148224,
        "lon": -123.17596711045144,
        "alt_km": 916.8153178832163,
        "timestamp": "2025-12-08T19:31:49.090762+00:00",
        "meta_object_name": "FENGYUN 1C DEB",
        "meta_object_id": "1999-025BSM",
        "meta_epoch": "2025-12-06T11:19:58.452384",
        "meta_mean_motion": 14.3702368,
        "meta_eccentricity": 0.01989303,
        "meta_inclination": 98.493,
        "meta_ra_of_asc_node": 63.9529,
        "meta_arg_of_pericenter": 50.6688,
        "meta_mean_anomaly": 311.1945,
        "meta_ephemeris_type": 0,
        "meta_classification_type": "U",
        "meta_norad_cat_id": 31381,
        "meta_element_set_no": 999,
        "meta_rev_at_epoch": 97310,
        "meta_bstar": 0.00062022394,
        "meta_mean_motion_dot": 2.261e-05,
        "meta_mean_motion_ddot": 0,
        "tle_line1": "1 31381U 99025BSM 25340.47220431  .00002261  00000+0  62022-3 0  9993",
        "tle_line2": "2 31381  98.4930  63.9529 0198930  50.6688 311.1945 14.37023680973106"
      },
      "geometry": {
        "type": "Point",
        "coordinates": [
          -123.17596711045144,
          -47.669268583148224
        ]
      }
    },
    {
      "type": "Feature",
      "properties": {
        "norad_id": 31383,
        "name": "FENGYUN 1C DEB",
        "group": "fengyun-1c-debris",
        "lat": -16.008022956156584,
        "lon": 47.37193525944174,
        "alt_km": 803.4392733531377,
        "timestamp": "2025-12-08T19:31:49.090771+00:00",
        "meta_object_name": "FENGYUN 1C DEB",
        "meta_object_id": "1999-025BSP",
        "meta_epoch": "2025-12-06T15:22:52.710240",
        "meta_mean_motion": 14.05680156,
        "meta_eccentricity": 0.010778,
        "meta_inclination": 99.0681,
        "meta_ra_of_asc_node": 42.5718,
        "meta_arg_of_pericenter": 334.5787,
        "meta_mean_anomaly": 179.2886,
        "meta_ephemeris_type": 0,
        "meta_classification_type": "U",
        "meta_norad_cat_id": 31383,
        "meta_element_set_no": 999,
        "meta_rev_at_epoch": 95283,
        "meta_bstar": 0.0011903311,
        "meta_mean_motion_dot": 1.999e-05,
        "meta_mean_motion_ddot": 0,
        "tle_line1": "1 31383U 99025BSP 25340.64088785  .00001999  00000+0  11903-2 0  9996",
        "tle_line2": "2 31383  99.0681  42.5718 0107780 334.5787 179.2886 14.05680156952834"
      },
      "geometry": {
        "type": "Point",
        "coordinates": [
          47.37193525944174,
          -16.008022956156584
        ]
      }
    }
  ]
}